#dP2024  1  6  0  0  0.00000000      97 __u+U IGS20 FIT  IAC
## 2295 518400.00000000   900.00000000 60315 0.0000000000000
+  117   C06C07C08C09C10C11C12C13C14C16C19C20C21C22C23C24C25
+        C26C27C28C29C30C32C33C34C35C36C37C38C39C40C41C42C43
+        C44C45C46E02E03E04E05E07E08E09E10E11E12E13E14E15E18
+        E19E21E24E25E26E27E30E31E33E34E36G01G02G04G05G06G07
+        G08G09G10G11G12G13G14G15G16G17G18G19G20G21G22G23G24
+        G25G26G28G29G30G31G32J02J03J04R01R02R03R04R05R07R08
+        R09R11R12R13R14R15R16R17R18R19R20R21R22R24R25  0  0
++         7  7  7  7  7  6  6  7  9  7  5  5  6  6  6  5  6
++         5  6  6  6  5  6  5  5  6  6  6  6  6  6  6  5  6
++         5  6  6  4  4  4  4  4  4  4  4  4  4  4  4  4  4
++         4  4  4  4  4  4  4  4  4  4  4  3  3  3  3  3  3
++         4  3  3  3  3  3  3  3  4  3  3  3  3  3  3  3  3
++         3  3  3  3  3  3  3  9  9  9  7  6  6  6  6  6  6
++         6  6  6  8  7  7  7  7  7  7  7  6  6  7  7  0  0
%c M  cc GPS ccc cccc cccc cccc cccc ccccc ccccc ccccc ccccc
%c cc cc ccc ccc cccc cccc cccc cccc ccccc ccccc ccccc ccccc
%f  1.2500000  1.025000000  0.00000000000  0.000000000000000
%f  0.0000000  0.000000000  0.00000000000  0.000000000000000
%i    0    0    0    0      0      0      0      0         0
%i    0    0    0    0      0      0      0      0         0
/* INFORMATION & ANALYSIS CENTER (IAC)            FINAL DATA
/* S/V CLOCKS ARE ALIGNED TO GNSS TIME                      
/* G:C1WC2W R:C1PC2P E:C1XC5X C:C2IC6I J:C1CC2S             
/* PCV:IGS20_2290 OL/AL:FES2004  NONE     YN ORB:CoN CLK:CoN
*  2024 01 06 13 15  0.00000000
PC06  -2504.765427  29146.327034 -30229.385274     32.539681
PC07 -14270.046284  29844.171134  26123.401825   -594.034867
PC08 -10715.790033  40898.619922    352.542774    131.259861
PC09   6956.386021  33739.935767 -23448.447566   -316.552588
PC10  -7094.008203  29787.845649  29130.152227    136.581060
PC11 -16280.968785 -19003.539156 -12266.380609    344.345501
PC12   2669.345891 -15900.577421 -22731.593227    804.161986
PC13  -6119.806882  41515.967788  -5277.508817    404.467577
PC14  -6821.175301 -14195.436420  23052.366717    -91.167058
PC16  -2363.668154  28530.396266 -30611.884269   -266.486165
PC19  15838.725107   7471.971546 -21707.023076   -941.478449
PC20  -1443.906664  17847.133864 -21387.347474    -39.978939
PC21  19490.996825 -18312.123338   8017.540768   -964.906181
PC22  25049.589289  -7761.994894  -9571.901268   -158.022507
PC23 -16343.479452    589.463014 -22618.020357   -793.571815
PC24  -1023.259857 -27869.843453   -323.140316    763.926748
PC25 -12927.890471 -18347.792254 -16583.216641    295.478303
PC26   9991.408917 -21019.889290  15349.297523   -230.845450
PC27 -11825.740756  11453.187227  22517.982262    252.877243
PC28 -23793.131432  -1539.604957  14510.255633    191.702351
PC29  23157.106911  14968.802559   4279.175901    224.537382
PC30   7169.931398  18786.198042  19335.438679    -13.363750
PC32 -19416.624232  18417.071510  -7882.215600   -550.535927
PC33 -15791.067104  -7507.321477  21749.893574   -942.398999
PC34  -8757.400618 -19000.837372 -18486.451553    341.233227
PC35  23839.764493    592.099188 -14470.688392    463.570929
PC36  12187.213929  19269.448950  16113.236429    -63.256153
PC37 -10755.125101  20386.698696 -15750.290086   -931.477815
PC38 -14421.878357  38737.866366   8719.576920    128.769386
PC39  -8171.091673  24145.624581 -33494.344332     -6.498566
PC40 -21957.558060  23811.666305  26837.569205    -50.926928
PC41 -24921.323019   7187.899021  10341.705009   -877.720857
PC42   3064.099457 -18466.381138  20746.534307   -469.503366
PC43 -22671.025793 -15464.880863  -5137.854263     55.321615
PC44  11583.494279 -11948.321818 -22407.165882    345.553659
PC45  16200.655552   -970.423362  22689.865670    -60.995554
PC46   1601.222236  27855.036858   1265.812194   -113.455929
PE02   6426.779282 -26179.403607 -12209.970724     92.802059
PE03   -149.205814 -16969.645350  24245.214301    -85.182733
PE04  21143.560639  12247.753508 -16700.880650   -297.329701
PE05  20676.405728 -11772.034495  17606.044176   4707.708786
PE07 -29590.606343   -639.623413   -208.028910    -96.972444
PE08 -20618.568836 -12427.218598  17214.907859   -203.768300
PE09  29596.205433    707.774396     81.546034   -289.761537
PE10  19775.738212  16029.750546 -15106.190700   -592.061571
PE11  19104.467664   5543.023437 -21916.729699   3280.586116
PE12  17382.959236  22966.795480  -6776.718666   -850.947107
PE13 -19220.925836  -6321.464621  21618.289549    -19.835527
PE14  31643.294890  -1026.632087  -4060.751721      2.811786
PE15 -17201.206140 -23262.406317   6288.970316    -78.709034
PE18 -23980.200589  -2877.521425   -781.938829    179.897108
PE19  -2663.036663  16710.583793 -24283.381773   -866.520293
PE21 -18452.259352  22471.322078  -5578.472934   -572.535967
PE24  20217.133631  -4883.698911  21031.047836   -527.072955
PE25  18599.270653 -22239.867598   5936.884651     -0.903884
PE26  -9675.272441  14721.936867  23798.495944    331.398663
PE27 -20295.521348   5457.871832 -20855.070505   -242.619609
PE30  -9963.462281 -14877.084191 -23582.372283   -802.472464
PE31  10145.760817  14599.569931  23668.764623    -13.201565
PE33   4677.247048  26178.964898  13012.497299      5.492583
PE34  -5172.387789 -26320.224290 -12506.158102    -87.484578
PE36   9968.102318 -14051.471873 -24061.681438   -168.060136
PG01 -17095.580193  -5173.289523  19430.111956    165.413054
PG02 -19574.069734 -10433.912422  15286.869938   -504.864195
PG04 -26597.699232  -1370.696241   -133.962763    259.073245
PG05  11864.323136   9632.424046 -21893.635228   -156.941277
PG06   4582.540451  23760.559181  10898.486199    453.977020
PG07 -11370.080834  10550.356219 -21031.174501    -30.603831
PG08 -24710.394498  -5806.515497  -8601.281016   -160.736433
PG09 -22689.119913   8068.851967 -11358.405291     50.186682
PG10   9869.952286 -23817.380292   5812.105447    -68.248151
PG11  11752.272204  23848.432346   -121.791357   -529.731026
PG12  17532.797148  -1238.704840  19608.445836   -465.123305
PG13  17506.426164  13364.631763 -15203.171318    613.174368
PG14 -13007.564492  22955.133652   2040.876030    291.319284
PG15  24926.233602   3669.810846  -9219.168550    114.472446
PG16  -6285.064532 -15742.830657 -20659.716606   -389.615542
PG17 -11335.442854  13170.667782  20559.104273    720.500823
PG18  10111.050146 -11980.721549 -21396.155781   -525.405026
PG19   -761.757738  14929.476208  21772.998357    422.794915
PG20   3773.461105  21137.539479 -15687.556280    392.895408
PG21 -19726.814645 -14639.974928  11737.829530    139.267852
PG22  -8559.252466  23404.438138  10031.386079     52.933784
PG23  16407.921627 -19596.563384  -6836.087584    130.087014
PG24  19792.400723  11746.496509  13199.524883   -408.587307
PG25  18534.650571 -13277.833474  13057.079553    484.289248
PG26   -265.606450 -22478.418154 -13994.663143    202.807565
PG28  -2987.920229 -22903.779839  13090.668647    -90.770449
PG29  23879.117900  -4987.826034 -10672.578724   -609.038239
PG30  -3458.960605  19879.925226 -17012.700554   -448.714049
PG31  -8998.816201 -24284.742378   4599.328456   -227.123435
PG32   6567.571382 -14760.805126  21236.618274   -602.929819
PJ02 -28353.063598  30769.120068   -526.527446     -0.992817
PJ03 -24354.355005  24437.964984  29398.024936     -0.129628
PJ04 -32679.683941  25242.144292  -3300.685714     76.086183
PR01  23185.050226 -10529.970994   1564.109598     73.904493
PR02  12670.813213 -13512.091572  17544.307961    -22.366200
PR03  -5425.815480  -9524.990378  23080.789362     92.277261
PR04 -19931.054079   -380.182142  15955.461825    218.357544
PR05 -23939.529309   8851.189471    210.993118    124.956179
PR07   6181.420985   9163.449641 -22945.221495     72.995127
PR08  20071.353763    135.454313 -15657.382944    -73.915405
PR09  -5549.077201  24326.263852  -5089.830924    162.893763
PR11   9220.222846   9208.546881  21930.726450   -225.820763
PR12  11269.615215 -11800.522290  19617.322149     35.304166
PR13   6786.383967 -23450.079493   7364.655229    -43.014426
PR14  -2662.628383 -22423.985929 -11874.682025     25.903561
PR15  -9674.329342  -7792.600475 -22267.273467     83.334084
PR16 -11100.483264  11581.547985 -19819.345102     22.235084
PR17 -14566.411371 -18064.382517 -10534.298021     49.976200
PR18 -20694.037635 -13721.467792   5982.807878    120.721332
PR19 -17034.719160  -4022.625495  18561.294345   -261.032239
PR20  -1377.616731  12123.711014  22407.975952   -106.359632
PR21  14761.705870  18175.822100  10154.277281    -66.797700
PR22  20388.753776  13673.884955  -6870.784652    101.856093
PR24    608.584655 -12873.823788 -21986.772547    -38.830018
PR25  13766.606312  18795.387228  10418.710562     19.064692
EOF
